{
  "type": "FeatureCollection",
  "features": [
    {
      "type": "Feature",
      "properties": {
        "OBJECT_NAME": "LAPAN-TUBSAT",
        "OBJECT_ID": "2007-001A",
        "EPOCH": "2025-11-30T04:27:17.294976",
        "MEAN_MOTION": 14.85640615,
        "ECCENTRICITY": 0.001353,
        "INCLINATION": 98.125,
        "RA_OF_ASC_NODE": 324.0847,
        "ARG_OF_PERICENTER": 111.1955,
        "MEAN_ANOMALY": 249.0706,
        "EPHEMERIS_TYPE": 0,
        "CLASSIFICATION_TYPE": "U",
        "NORAD_CAT_ID": 29709,
        "ELEMENT_SET_NO": 999,
        "REV_AT_EPOCH": 2160,
        "BSTAR": 9.6379e-05,
        "MEAN_MOTION_DOT": 7.79e-06,
        "MEAN_MOTION_DDOT": 0,
        "norad_id": 29709,
        "name": "LAPAN-TUBSAT",
        "group": "resource",
        "longitude_deg": NaN,
        "latitude_deg": NaN,
        "alt_km": NaN,
        "orbit_class": "HEO",
        "timestamp": "2025-11-30T09:33:02.501512+00:00"
      },
      "geometry": {
        "type": "Point",
        "coordinates": [
          NaN,
          NaN
        ]
      }
    },
    {
      "type": "Feature",
      "properties": {
        "OBJECT_NAME": "HAIYANG-1B",
        "OBJECT_ID": "2007-010A",
        "EPOCH": "2025-11-29T22:31:06.724992",
        "MEAN_MOTION": 14.30958271,
        "ECCENTRICITY": 0.001465,
        "INCLINATION": 98.3306,
        "RA_OF_ASC_NODE": 318.7461,
        "ARG_OF_PERICENTER": 73.2861,
        "MEAN_ANOMALY": 286.9929,
        "EPHEMERIS_TYPE": 0,
        "CLASSIFICATION_TYPE": "U",
        "NORAD_CAT_ID": 31113,
        "ELEMENT_SET_NO": 999,
        "REV_AT_EPOCH": 97213,
        "BSTAR": 7.4774e-05,
        "MEAN_MOTION_DOT": 1.55e-06,
        "MEAN_MOTION_DDOT": 0,
        "norad_id": 31113,
        "name": "HAIYANG-1B",
        "group": "resource",
        "longitude_deg": NaN,
        "latitude_deg": NaN,
        "alt_km": NaN,
        "orbit_class": "HEO",
        "timestamp": "2025-11-30T09:33:02.501552+00:00"
      },
      "geometry": {
        "type": "Point",
        "coordinates": [
          NaN,
          NaN
        ]
      }
    },
    {
      "type": "Feature",
      "properties": {
        "OBJECT_NAME": "COSMO-SKYMED 1",
        "OBJECT_ID": "2007-023A",
        "EPOCH": "2025-11-30T03:27:29.045088",
        "MEAN_MOTION": 14.95622459,
        "ECCENTRICITY": 0.0001586,
        "INCLINATION": 97.885,
        "RA_OF_ASC_NODE": 159.4616,
        "ARG_OF_PERICENTER": 85.9034,
        "MEAN_ANOMALY": 274.2367,
        "EPHEMERIS_TYPE": 0,
        "CLASSIFICATION_TYPE": "U",
        "NORAD_CAT_ID": 31598,
        "ELEMENT_SET_NO": 999,
        "REV_AT_EPOCH": 2,
        "BSTAR": 0.0004614,
        "MEAN_MOTION_DOT": 5.068e-05,
        "MEAN_MOTION_DDOT": 0,
        "norad_id": 31598,
        "name": "COSMO-SKYMED 1",
        "group": "resource",
        "longitude_deg": NaN,
        "latitude_deg": NaN,
        "alt_km": NaN,
        "orbit_class": "HEO",
        "timestamp": "2025-11-30T09:33:02.501631+00:00"
      },
      "geometry": {
        "type": "Point",
        "coordinates": [
          NaN,
          NaN
        ]
      }
    },
    {
      "type": "Feature",
      "properties": {
        "OBJECT_NAME": "TERRASAR-X",
        "OBJECT_ID": "2007-026A",
        "EPOCH": "2025-11-29T14:39:40.952160",
        "MEAN_MOTION": 15.19156778,
        "ECCENTRICITY": 0.0001854,
        "INCLINATION": 97.4442,
        "RA_OF_ASC_NODE": 339.1835,
        "ARG_OF_PERICENTER": 80.974,
        "MEAN_ANOMALY": 279.1704,
        "EPHEMERIS_TYPE": 0,
        "CLASSIFICATION_TYPE": "U",
        "NORAD_CAT_ID": 31698,
        "ELEMENT_SET_NO": 999,
        "REV_AT_EPOCH": 2292,
        "BSTAR": 7.2153e-05,
        "MEAN_MOTION_DOT": 1.449e-05,
        "MEAN_MOTION_DDOT": 0,
        "norad_id": 31698,
        "name": "TERRASAR-X",
        "group": "resource",
        "longitude_deg": NaN,
        "latitude_deg": NaN,
        "alt_km": NaN,
        "orbit_class": "HEO",
        "timestamp": "2025-11-30T09:33:02.501637+00:00"
      },
      "geometry": {
        "type": "Point",
        "coordinates": [
          NaN,
          NaN
        ]
      }
    },
    {
      "type": "Feature",
      "properties": {
        "OBJECT_NAME": "WORLDVIEW-1 (WV-1)",
        "OBJECT_ID": "2007-041A",
        "EPOCH": "2025-11-30T01:13:00.448032",
        "MEAN_MOTION": 15.24367238,
        "ECCENTRICITY": 7.62e-05,
        "INCLINATION": 97.3829,
        "RA_OF_ASC_NODE": 91.7136,
        "ARG_OF_PERICENTER": 88.2482,
        "MEAN_ANOMALY": 271.8842,
        "EPHEMERIS_TYPE": 0,
        "CLASSIFICATION_TYPE": "U",
        "NORAD_CAT_ID": 32060,
        "ELEMENT_SET_NO": 999,
        "REV_AT_EPOCH": 1254,
        "BSTAR": 0.00037966,
        "MEAN_MOTION_DOT": 9.23e-05,
        "MEAN_MOTION_DDOT": 0,
        "norad_id": 32060,
        "name": "WORLDVIEW-1 (WV-1)",
        "group": "resource",
        "longitude_deg": NaN,
        "latitude_deg": NaN,
        "alt_km": NaN,
        "orbit_class": "HEO",
        "timestamp": "2025-11-30T09:33:02.501669+00:00"
      },
      "geometry": {
        "type": "Point",
        "coordinates": [
          NaN,
          NaN
        ]
      }
    },
    {
      "type": "Feature",
      "properties": {
        "OBJECT_NAME": "YAOGAN-3",
        "OBJECT_ID": "2007-055A",
        "EPOCH": "2025-11-30T04:33:05.571648",
        "MEAN_MOTION": 14.89763334,
        "ECCENTRICITY": 0.0001574,
        "INCLINATION": 97.8385,
        "RA_OF_ASC_NODE": 0.9285,
        "ARG_OF_PERICENTER": 77.3732,
        "MEAN_ANOMALY": 282.7662,
        "EPHEMERIS_TYPE": 0,
        "CLASSIFICATION_TYPE": "U",
        "NORAD_CAT_ID": 32289,
        "ELEMENT_SET_NO": 999,
        "REV_AT_EPOCH": 97622,
        "BSTAR": 0.00027281,
        "MEAN_MOTION_DOT": 2.56e-05,
        "MEAN_MOTION_DDOT": 0,
        "norad_id": 32289,
        "name": "YAOGAN-3",
        "group": "resource",
        "longitude_deg": NaN,
        "latitude_deg": NaN,
        "alt_km": NaN,
        "orbit_class": "HEO",
        "timestamp": "2025-11-30T09:33:02.501723+00:00"
      },
      "geometry": {
        "type": "Point",
        "coordinates": [
          NaN,
          NaN
        ]
      }
    },
    {
      "type": "Feature",
      "properties": {
        "OBJECT_NAME": "COSMO-SKYMED 2",
        "OBJECT_ID": "2007-059A",
        "EPOCH": "2025-11-30T03:21:44.321184",
        "MEAN_MOTION": 14.82169309,
        "ECCENTRICITY": 0.0001492,
        "INCLINATION": 97.8808,
        "RA_OF_ASC_NODE": 155.6531,
        "ARG_OF_PERICENTER": 85.7046,
        "MEAN_ANOMALY": 274.4338,
        "EPHEMERIS_TYPE": 0,
        "CLASSIFICATION_TYPE": "U",
        "NORAD_CAT_ID": 32376,
        "ELEMENT_SET_NO": 999,
        "REV_AT_EPOCH": 97251,
        "BSTAR": 9.1792e-05,
        "MEAN_MOTION_DOT": 6.79e-06,
        "MEAN_MOTION_DDOT": 0,
        "norad_id": 32376,
        "name": "COSMO-SKYMED 2",
        "group": "resource",
        "longitude_deg": NaN,
        "latitude_deg": NaN,
        "alt_km": NaN,
        "orbit_class": "HEO",
        "timestamp": "2025-11-30T09:33:02.501742+00:00"
      },
      "geometry": {
        "type": "Point",
        "coordinates": [
          NaN,
          NaN
        ]
      }
    },
    {
      "type": "Feature",
      "properties": {
        "OBJECT_NAME": "RADARSAT-2",
        "OBJECT_ID": "2007-061A",
        "EPOCH": "2025-11-30T04:20:05.795232",
        "MEAN_MOTION": 14.29982439,
        "ECCENTRICITY": 0.0001083,
        "INCLINATION": 98.58,
        "RA_OF_ASC_NODE": 338.9532,
        "ARG_OF_PERICENTER": 90.9099,
        "MEAN_ANOMALY": 269.2208,
        "EPHEMERIS_TYPE": 0,
        "CLASSIFICATION_TYPE": "U",
        "NORAD_CAT_ID": 32382,
        "ELEMENT_SET_NO": 999,
        "REV_AT_EPOCH": 93751,
        "BSTAR": 6.0888e-05,
        "MEAN_MOTION_DOT": 1.13e-06,
        "MEAN_MOTION_DDOT": 0,
        "norad_id": 32382,
        "name": "RADARSAT-2",
        "group": "resource",
        "longitude_deg": NaN,
        "latitude_deg": NaN,
        "alt_km": NaN,
        "orbit_class": "HEO",
        "timestamp": "2025-11-30T09:33:02.501749+00:00"
      },
      "geometry": {
        "type": "Point",
        "coordinates": [
          NaN,
          NaN
        ]
      }
    }
  ]
}