LAPAN-TUBSAT            
1 29709U 07001A   25334.18561684  .00000779  00000+0  96379-4 0  9991
2 29709  98.1250 324.0847 0013530 111.1955 249.0706 14.85640615 21604
HAIYANG-1B              
1 31113U 07010A   25333.93827228  .00000155  00000+0  74774-4 0  9997
2 31113  98.3306 318.7461 0014650  73.2861 286.9929 14.30958271972130
COSMO-SKYMED 1          
1 31598U 07023A   25334.14408617  .00005068  00000+0  46140-3 0  9992
2 31598  97.8850 159.4616 0001586  85.9034 274.2367 14.95622459    26
TERRASAR-X              
1 31698U 07026A   25333.61089065  .00001449  00000+0  72153-4 0  9992
2 31698  97.4442 339.1835 0001854  80.9740 279.1704 15.19156778 22922
WORLDVIEW-1 (WV-1)      
1 32060U 07041A   25334.05069963  .00009230  00000+0  37966-3 0  9995
2 32060  97.3829  91.7136 0000762  88.2482 271.8842 15.24367238 12540
YAOGAN-3                
1 32289U 07055A   25334.18964782  .00002560  00000+0  27281-3 0  9998
2 32289  97.8385   0.9285 0001574  77.3732 282.7662 14.89763334976223
COSMO-SKYMED 2          
1 32376U 07059A   25334.14009631  .00000679  00000+0  91792-4 0  9996
2 32376  97.8808 155.6531 0001492  85.7046 274.4338 14.82169309972513
RADARSAT-2              
1 32382U 07061A   25334.18062263  .00000113  00000+0  60888-4 0  9995
2 32382  98.5800 338.9532 0001083  90.9099 269.2208 14.29982439937516
